start=new Date('2021-11-10T00:00:00.000Z').valueOf();
sats=[{"PERIOD":"95.909","OBJECT_TYPE":"PAYLOAD","TLE_LINE2":"2 45418  53.0012  82.1694 0001580 102.0681 258.0483 15.01423387 90886","REF_FRAME":"TEME","FILE":"3210161","MEAN_MOTION":"15.01423387","MEAN_ANOMALY":"258.0483","DECAY_DATE":null,"ARG_OF_PERICENTER":"102.0681","APOAPSIS":"563.605","MEAN_MOTION_DDOT":"0.0000000000000","GP_ID":"189335302","RCS_SIZE":"LARGE","PERIAPSIS":"561.412","MEAN_ELEMENT_THEORY":"SGP4","TIME_SYSTEM":"UTC","OBJECT_NAME":"STARLINK-1299","EPOCH":"2021-11-09T14:51:21.391776","CENTER_NAME":"EARTH","TLE_LINE1":"1 45418U 20019BL  21313.61899759  .00003855  00000-0  31594-3 0  9994","LAUNCH_DATE":"2020-03-18","BSTAR":"0.00031594000000","EPHEMERIS_TYPE":"0","ELEMENT_SET_NO":"999","RA_OF_ASC_NODE":"82.1694","CLASSIFICATION_TYPE":"U","OBJECT_ID":"2020-019BL","COUNTRY_CODE":"US","REV_AT_EPOCH":"9088","INCLINATION":"53.0012","MEAN_MOTION_DOT":"0.00003855","SITE":"AFETR","NORAD_CAT_ID":"45418","ECCENTRICITY":"0.00015800","SEMIMAJOR_AXIS":"6940.643"},{"REF_FRAME":"TEME","FILE":"3210180","MEAN_ANOMALY":"268.6445","MEAN_MOTION":"15.06390018","PERIOD":"95.593","OBJECT_TYPE":"PAYLOAD","TLE_LINE2":"2 45419  53.0546  64.0718 0001466  91.4712 268.6445 15.06390018 91171","APOAPSIS":"548.259","MEAN_MOTION_DDOT":"0.0000000000000","DECAY_DATE":null,"ARG_OF_PERICENTER":"91.4712","GP_ID":"189358801","TIME_SYSTEM":"UTC","OBJECT_NAME":"STARLINK-1308","RCS_SIZE":"LARGE","PERIAPSIS":"546.229","MEAN_ELEMENT_THEORY":"SGP4","EPHEMERIS_TYPE":"0","BSTAR":"0.00003616400000","EPOCH":"2021-11-09T16:11:37.958496","CENTER_NAME":"EARTH","LAUNCH_DATE":"2020-03-18","TLE_LINE1":"1 45419U 20019BM  21313.67474489  .00000257  00000-0  36164-4 0  9992","RA_OF_ASC_NODE":"64.0718","CLASSIFICATION_TYPE":"U","OBJECT_ID":"2020-019BM","COUNTRY_CODE":"US","ELEMENT_SET_NO":"999","SITE":"AFETR","INCLINATION":"53.0546","REV_AT_EPOCH":"9117","MEAN_MOTION_DOT":"0.00000257","NORAD_CAT_ID":"45419","ECCENTRICITY":"0.00014660","SEMIMAJOR_AXIS":"6925.379"},{"GP_ID":"189336316","TIME_SYSTEM":"UTC","OBJECT_NAME":"STARLINK-1329","RCS_SIZE":"LARGE","PERIAPSIS":"546.392","MEAN_ELEMENT_THEORY":"SGP4","REF_FRAME":"TEME","FILE":"3210161","MEAN_ANOMALY":"277.1503","MEAN_MOTION":"15.06425147","PERIOD":"95.591","OBJECT_TYPE":"PAYLOAD","TLE_LINE2":"2 45531  53.0543   4.7987 0001075  82.9608 277.1503 15.06425147 86779","APOAPSIS":"547.881","MEAN_MOTION_DDOT":"0.0000000000000","DECAY_DATE":null,"ARG_OF_PERICENTER":"82.9608","SITE":"AFETR","REV_AT_EPOCH":"8677","INCLINATION":"53.0543","MEAN_MOTION_DOT":"0.00003561","NORAD_CAT_ID":"45531","ECCENTRICITY":"0.00010750","SEMIMAJOR_AXIS":"6925.271","BSTAR":"0.00025764000000","EPHEMERIS_TYPE":"0","EPOCH":"2021-11-09T12:15:28.423296","CENTER_NAME":"EARTH","LAUNCH_DATE":"2020-04-22","TLE_LINE1":"1 45531U 20025A   21313.51074564  .00003561  00000-0  25764-3 0  9991","RA_OF_ASC_NODE":"4.7987","CLASSIFICATION_TYPE":"U","OBJECT_ID":"2020-025A","COUNTRY_CODE":"US","ELEMENT_SET_NO":"999"},{"MEAN_MOTION":"15.06399253","MEAN_ANOMALY":"287.3981","FILE":"3210161","REF_FRAME":"TEME","TLE_LINE2":"2 45532  53.0557   4.7598 0001137  72.7133 287.3981 15.06399253 86773","OBJECT_TYPE":"PAYLOAD","PERIOD":"95.592","APOAPSIS":"548.003","MEAN_MOTION_DDOT":"0.0000000000000","ARG_OF_PERICENTER":"72.7133","DECAY_DATE":null,"GP_ID":"189335563","OBJECT_NAME":"STARLINK-1338","TIME_SYSTEM":"UTC","MEAN_ELEMENT_THEORY":"SGP4","PERIAPSIS":"546.428","RCS_SIZE":"LARGE","EPHEMERIS_TYPE":"0","BSTAR":"0.00033598000000","LAUNCH_DATE":"2020-04-22","TLE_LINE1":"1 45532U 20025B   21313.52178464  .00004726  00000-0  33598-3 0  9995","CENTER_NAME":"EARTH","EPOCH":"2021-11-09T12:31:22.192896","COUNTRY_CODE":"US","OBJECT_ID":"2020-025B","CLASSIFICATION_TYPE":"U","RA_OF_ASC_NODE":"4.7598","ELEMENT_SET_NO":"999","SITE":"AFETR","MEAN_MOTION_DOT":"0.00004726","INCLINATION":"53.0557","REV_AT_EPOCH":"8677","SEMIMAJOR_AXIS":"6925.351","NORAD_CAT_ID":"45532","ECCENTRICITY":"0.00011370"},{"MEAN_MOTION_DDOT":"0.0000000000000","APOAPSIS":"523.465","ARG_OF_PERICENTER":"58.0557","DECAY_DATE":null,"MEAN_MOTION":"15.14567048","MEAN_ANOMALY":"302.0600","REF_FRAME":"TEME","FILE":"3210161","TLE_LINE2":"2 45533  53.0542   4.5937 0001695  58.0557 302.0600 15.14567048 86769","PERIOD":"95.077","OBJECT_TYPE":"PAYLOAD","OBJECT_NAME":"STARLINK-1339","TIME_SYSTEM":"UTC","RCS_SIZE":"LARGE","PERIAPSIS":"521.126","MEAN_ELEMENT_THEORY":"SGP4","GP_ID":"189335314","OBJECT_ID":"2020-025C","COUNTRY_CODE":"US","RA_OF_ASC_NODE":"4.5937","CLASSIFICATION_TYPE":"U","ELEMENT_SET_NO":"999","EPHEMERIS_TYPE":"0","BSTAR":"0.01198400000000","TLE_LINE1":"1 45533U 20025C   21313.40798967  .00230677  00000-0  11984-1 0  9998","LAUNCH_DATE":"2020-04-22","EPOCH":"2021-11-09T09:47:30.307488","CENTER_NAME":"EARTH","SEMIMAJOR_AXIS":"6900.430","NORAD_CAT_ID":"45533","ECCENTRICITY":"0.00016950","SITE":"AFETR","MEAN_MOTION_DOT":"0.00230677","REV_AT_EPOCH":"8676","INCLINATION":"53.0542"},{"NORAD_CAT_ID":"45534","ECCENTRICITY":"0.00011170","SEMIMAJOR_AXIS":"6925.347","SITE":"AFETR","INCLINATION":"53.0557","REV_AT_EPOCH":"8677","MEAN_MOTION_DOT":"0.00005214","CLASSIFICATION_TYPE":"U","RA_OF_ASC_NODE":"4.7149","COUNTRY_CODE":"US","OBJECT_ID":"2020-025D","ELEMENT_SET_NO":"999","EPHEMERIS_TYPE":"0","BSTAR":"0.00036866000000","CENTER_NAME":"EARTH","EPOCH":"2021-11-09T12:47:17.918592","LAUNCH_DATE":"2020-04-22","TLE_LINE1":"1 45534U 20025D   21313.53284628  .00005214  00000-0  36866-3 0  9992","TIME_SYSTEM":"UTC","OBJECT_NAME":"STARLINK-1341","PERIAPSIS":"546.438","MEAN_ELEMENT_THEORY":"SGP4","RCS_SIZE":"LARGE","GP_ID":"189336565","APOAPSIS":"547.985","MEAN_MOTION_DDOT":"0.0000000000000","DECAY_DATE":null,"ARG_OF_PERICENTER":"79.9669","FILE":"3210161","REF_FRAME":"TEME","MEAN_ANOMALY":"280.1446","MEAN_MOTION":"15.06400653","OBJECT_TYPE":"PAYLOAD","PERIOD":"95.592","TLE_LINE2":"2 45534  53.0557   4.7149 0001117  79.9669 280.1446 15.06400653 86772"},{"MEAN_ELEMENT_THEORY":"SGP4","PERIAPSIS":"546.232","RCS_SIZE":"LARGE","TIME_SYSTEM":"UTC","OBJECT_NAME":"STARLINK-1350","GP_ID":"189336816","DECAY_DATE":null,"ARG_OF_PERICENTER":"83.8200","MEAN_MOTION_DDOT":"0.0000000000000","APOAPSIS":"548.219","OBJECT_TYPE":"PAYLOAD","PERIOD":"95.592","TLE_LINE2":"2 45535  53.0548   4.6369 0001435  83.8200 276.2953 15.06396161 86782","FILE":"3210161","REF_FRAME":"TEME","MEAN_MOTION":"15.06396161","MEAN_ANOMALY":"276.2953","NORAD_CAT_ID":"45535","ECCENTRICITY":"0.00014350","SEMIMAJOR_AXIS":"6925.360","REV_AT_EPOCH":"8678","INCLINATION":"53.0548","MEAN_MOTION_DOT":"0.00002722","SITE":"AFETR","ELEMENT_SET_NO":"999","CLASSIFICATION_TYPE":"U","RA_OF_ASC_NODE":"4.6369","COUNTRY_CODE":"US","OBJECT_ID":"2020-025E","CENTER_NAME":"EARTH","EPOCH":"2021-11-09T13:13:47.864352","LAUNCH_DATE":"2020-04-22","TLE_LINE1":"1 45535U 20025E   21313.55124843  .00002722  00000-0  20157-3 0  9994","EPHEMERIS_TYPE":"0","BSTAR":"0.00020157000000"},{"GP_ID":"189360316","PERIAPSIS":"546.241","MEAN_ELEMENT_THEORY":"SGP4","RCS_SIZE":"LARGE","OBJECT_NAME":"STARLINK-1352","TIME_SYSTEM":"UTC","TLE_LINE2":"2 45536  53.0554   4.3161 0001369  81.6273 278.4871 15.06407869 86780","OBJECT_TYPE":"PAYLOAD","PERIOD":"95.592","MEAN_ANOMALY":"278.4871","MEAN_MOTION":"15.06407869","FILE":"3210180","REF_FRAME":"TEME","ARG_OF_PERICENTER":"81.6273","DECAY_DATE":null,"APOAPSIS":"548.138","MEAN_MOTION_DDOT":"0.0000000000000","MEAN_MOTION_DOT":"0.00001125","REV_AT_EPOCH":"8678","INCLINATION":"53.0554","SITE":"AFETR","SEMIMAJOR_AXIS":"6925.324","NORAD_CAT_ID":"45536","ECCENTRICITY":"0.00013690","LAUNCH_DATE":"2020-04-22","TLE_LINE1":"1 45536U 20025F   21313.62127990  .00001125  00000-0  94356-4 0  9998","CENTER_NAME":"EARTH","EPOCH":"2021-11-09T14:54:38.583360","BSTAR":"0.00009435600000","EPHEMERIS_TYPE":"0","ELEMENT_SET_NO":"999","COUNTRY_CODE":"US","OBJECT_ID":"2020-025F","CLASSIFICATION_TYPE":"U","RA_OF_ASC_NODE":"4.3161"},{"NORAD_CAT_ID":"45537","ECCENTRICITY":"0.00029420","SEMIMAJOR_AXIS":"6898.216","SITE":"AFETR","REV_AT_EPOCH":"8710","INCLINATION":"53.0028","MEAN_MOTION_DOT":"0.00005991","RA_OF_ASC_NODE":"339.5544","CLASSIFICATION_TYPE":"U","OBJECT_ID":"2020-025G","COUNTRY_CODE":"US","ELEMENT_SET_NO":"999","BSTAR":"0.00033030000000","EPHEMERIS_TYPE":"0","EPOCH":"2021-11-09T10:48:33.728832","CENTER_NAME":"EARTH","TLE_LINE1":"1 45537U 20025G   21313.45039038  .00005991  00000-0  33030-3 0  9991","LAUNCH_DATE":"2020-04-22","TIME_SYSTEM":"UTC","OBJECT_NAME":"STARLINK-1353","RCS_SIZE":"LARGE","PERIAPSIS":"518.051","MEAN_ELEMENT_THEORY":"SGP4","GP_ID":"189335814","APOAPSIS":"522.110","MEAN_MOTION_DDOT":"0.0000000000000","DECAY_DATE":null,"ARG_OF_PERICENTER":"70.9997","REF_FRAME":"TEME","FILE":"3210161","MEAN_ANOMALY":"289.1314","MEAN_MOTION":"15.15296481","PERIOD":"95.031","OBJECT_TYPE":"PAYLOAD","TLE_LINE2":"2 45537  53.0028 339.5544 0002942  70.9997 289.1314 15.15296481 87101"},{"MEAN_MOTION_DDOT":"0.0000000000000","APOAPSIS":"548.146","DECAY_DATE":null,"ARG_OF_PERICENTER":"79.7890","FILE":"3210161","REF_FRAME":"TEME","MEAN_ANOMALY":"280.3263","MEAN_MOTION":"15.06424168","OBJECT_TYPE":"PAYLOAD","PERIOD":"95.591","TLE_LINE2":"2 45538  53.0549   4.7919 0001454  79.7890 280.3263 15.06424168 86776","TIME_SYSTEM":"UTC","OBJECT_NAME":"STARLINK-1362","PERIAPSIS":"546.133","MEAN_ELEMENT_THEORY":"SGP4","RCS_SIZE":"LARGE","GP_ID":"189336066","CLASSIFICATION_TYPE":"U","RA_OF_ASC_NODE":"4.7919","COUNTRY_CODE":"US","OBJECT_ID":"2020-025H","ELEMENT_SET_NO":"999","EPHEMERIS_TYPE":"0","BSTAR":"0.00065101000000","CENTER_NAME":"EARTH","EPOCH":"2021-11-09T12:20:44.683584","LAUNCH_DATE":"2020-04-22","TLE_LINE1":"1 45538U 20025H   21313.51440606  .00009435  00000-0  65101-3 0  9997","NORAD_CAT_ID":"45538","ECCENTRICITY":"0.00014540","SEMIMAJOR_AXIS":"6925.274","SITE":"AFETR","INCLINATION":"53.0549","REV_AT_EPOCH":"8677","MEAN_MOTION_DOT":"0.00009435"}];
